start=new Date('2022-01-10T00:00:00.000Z').valueOf();
sats=[{"TLE_LINE1":"1 47772U 21017BC  22009.81388408  .00000843  00000-0  75507-4 0  9994","PERIAPSIS":"545.529","MEAN_MOTION":"15.06398478","EPHEMERIS_TYPE":"0","ECCENTRICITY":"0.00024390","INCLINATION":"53.0540","SITE":"AFETR","MEAN_ELEMENT_THEORY":"SGP4","LAUNCH_DATE":"2021-03-04","GP_ID":"193558173","REV_AT_EPOCH":"4851","NORAD_CAT_ID":"47772","BSTAR":"0.00007550700000","FILE":"3268323","TIME_SYSTEM":"UTC","ELEMENT_SET_NO":"999","MEAN_MOTION_DDOT":"0.0000000000000","RA_OF_ASC_NODE":"204.5982","OBJECT_NAME":"STARLINK-2195","ARG_OF_PERICENTER":"68.5718","EPOCH":"2022-01-09T19:31:59.584512","MEAN_ANOMALY":"291.5531","APOAPSIS":"548.907","OBJECT_TYPE":"PAYLOAD","MEAN_MOTION_DOT":"0.00000843","DECAY_DATE":null,"OBJECT_ID":"2021-017BC","RCS_SIZE":"LARGE","PERIOD":"95.592","CENTER_NAME":"EARTH","TLE_LINE2":"2 47772  53.0540 204.5982 0002439  68.5718 291.5531 15.06398478 48514","COUNTRY_CODE":"US","REF_FRAME":"TEME","SEMIMAJOR_AXIS":"6925.353","CLASSIFICATION_TYPE":"U"},{"TLE_LINE2":"2 47773  53.0540 204.6210 0002238  72.8965 287.2269 15.06394214 48502","COUNTRY_CODE":"US","REF_FRAME":"TEME","SEMIMAJOR_AXIS":"6925.366","CLASSIFICATION_TYPE":"U","EPOCH":"2022-01-09T19:26:41.713728","ARG_OF_PERICENTER":"72.8965","APOAPSIS":"548.781","OBJECT_TYPE":"PAYLOAD","MEAN_ANOMALY":"287.2269","DECAY_DATE":null,"MEAN_MOTION_DOT":"0.00000591","PERIOD":"95.593","RCS_SIZE":"LARGE","CENTER_NAME":"EARTH","OBJECT_ID":"2021-017BD","REV_AT_EPOCH":"4850","NORAD_CAT_ID":"47773","BSTAR":"0.00005859500000","FILE":"3268323","ELEMENT_SET_NO":"999","TIME_SYSTEM":"UTC","OBJECT_NAME":"STARLINK-2196","MEAN_MOTION_DDOT":"0.0000000000000","RA_OF_ASC_NODE":"204.6210","MEAN_MOTION":"15.06394214","EPHEMERIS_TYPE":"0","PERIAPSIS":"545.681","TLE_LINE1":"1 47773U 21017BD  22009.81020502  .00000591  00000-0  58595-4 0  9991","SITE":"AFETR","INCLINATION":"53.0540","MEAN_ELEMENT_THEORY":"SGP4","ECCENTRICITY":"0.00022380","GP_ID":"193558925","LAUNCH_DATE":"2021-03-04"},{"REV_AT_EPOCH":"4851","NORAD_CAT_ID":"47774","BSTAR":"0.00005340700000","TIME_SYSTEM":"UTC","FILE":"3268323","ELEMENT_SET_NO":"999","OBJECT_NAME":"STARLINK-2197","RA_OF_ASC_NODE":"204.6346","MEAN_MOTION_DDOT":"0.0000000000000","MEAN_MOTION":"15.06387865","EPHEMERIS_TYPE":"0","TLE_LINE1":"1 47774U 21017BE  22009.80652017  .00000514  00000-0  53407-4 0  9995","PERIAPSIS":"545.639","INCLINATION":"53.0541","SITE":"AFETR","MEAN_ELEMENT_THEORY":"SGP4","ECCENTRICITY":"0.00023280","GP_ID":"193558658","LAUNCH_DATE":"2021-03-04","TLE_LINE2":"2 47774  53.0541 204.6346 0002328  68.4204 291.7032 15.06387865 48514","COUNTRY_CODE":"US","REF_FRAME":"TEME","SEMIMAJOR_AXIS":"6925.386","CLASSIFICATION_TYPE":"U","EPOCH":"2022-01-09T19:21:23.342688","ARG_OF_PERICENTER":"68.4204","APOAPSIS":"548.863","OBJECT_TYPE":"PAYLOAD","MEAN_ANOMALY":"291.7032","MEAN_MOTION_DOT":"0.00000514","DECAY_DATE":null,"RCS_SIZE":"LARGE","PERIOD":"95.593","CENTER_NAME":"EARTH","OBJECT_ID":"2021-017BE"},{"COUNTRY_CODE":"US","TLE_LINE2":"2 47775  53.0530 204.5978 0002286  73.0181 287.1058 15.06410647 48569","CLASSIFICATION_TYPE":"U","REF_FRAME":"TEME","SEMIMAJOR_AXIS":"6925.316","APOAPSIS":"548.764","OBJECT_TYPE":"PAYLOAD","MEAN_ANOMALY":"287.1058","EPOCH":"2022-01-09T19:37:17.724000","ARG_OF_PERICENTER":"73.0181","CENTER_NAME":"EARTH","RCS_SIZE":"LARGE","PERIOD":"95.591","OBJECT_ID":"2021-017BF","MEAN_MOTION_DOT":"0.00002385","DECAY_DATE":null,"NORAD_CAT_ID":"47775","BSTAR":"0.00017892000000","REV_AT_EPOCH":"4856","OBJECT_NAME":"STARLINK-2198","RA_OF_ASC_NODE":"204.5978","MEAN_MOTION_DDOT":"0.0000000000000","FILE":"3268323","ELEMENT_SET_NO":"999","TIME_SYSTEM":"UTC","MEAN_MOTION":"15.06410647","EPHEMERIS_TYPE":"0","PERIAPSIS":"545.598","TLE_LINE1":"1 47775U 21017BF  22009.81756625  .00002385  00000-0  17892-3 0  9992","GP_ID":"193557424","LAUNCH_DATE":"2021-03-04","INCLINATION":"53.0530","SITE":"AFETR","MEAN_ELEMENT_THEORY":"SGP4","ECCENTRICITY":"0.00022860"},{"OBJECT_ID":"2021-017BG","RCS_SIZE":"LARGE","CENTER_NAME":"EARTH","PERIOD":"95.593","DECAY_DATE":null,"MEAN_MOTION_DOT":"-0.00001185","MEAN_ANOMALY":"286.7834","OBJECT_TYPE":"PAYLOAD","APOAPSIS":"548.696","ARG_OF_PERICENTER":"73.3386","EPOCH":"2022-01-09T18:40:13.711008","CLASSIFICATION_TYPE":"U","SEMIMAJOR_AXIS":"6925.367","REF_FRAME":"TEME","COUNTRY_CODE":"US","TLE_LINE2":"2 47776  53.0531 194.7709 0002114  73.3386 286.7834 15.06393844 48660","LAUNCH_DATE":"2021-03-04","GP_ID":"193557674","ECCENTRICITY":"0.00021140","MEAN_ELEMENT_THEORY":"SGP4","INCLINATION":"53.0531","SITE":"AFETR","PERIAPSIS":"545.768","TLE_LINE1":"1 47776U 21017BG  22009.77793647 -.00001185  00000-0 -60670-4 0  9995","EPHEMERIS_TYPE":"0","MEAN_MOTION":"15.06393844","MEAN_MOTION_DDOT":"0.0000000000000","RA_OF_ASC_NODE":"194.7709","OBJECT_NAME":"STARLINK-2209","TIME_SYSTEM":"UTC","FILE":"3268323","ELEMENT_SET_NO":"999","BSTAR":"-0.00006067000000","NORAD_CAT_ID":"47776","REV_AT_EPOCH":"4866"},{"NORAD_CAT_ID":"47777","BSTAR":"0.00006776100000","REV_AT_EPOCH":"4866","RA_OF_ASC_NODE":"194.7620","MEAN_MOTION_DDOT":"0.0000000000000","OBJECT_NAME":"STARLINK-2210","ELEMENT_SET_NO":"999","FILE":"3268323","TIME_SYSTEM":"UTC","PERIAPSIS":"545.697","TLE_LINE1":"1 47777U 21017BH  22009.78162096  .00000728  00000-0  67761-4 0  9993","MEAN_MOTION":"15.06401200","EPHEMERIS_TYPE":"0","LAUNCH_DATE":"2021-03-04","GP_ID":"193558426","ECCENTRICITY":"0.00021850","SITE":"AFETR","INCLINATION":"53.0533","MEAN_ELEMENT_THEORY":"SGP4","COUNTRY_CODE":"US","TLE_LINE2":"2 47777  53.0533 194.7620 0002185  69.4437 290.6786 15.06401200 48662","CLASSIFICATION_TYPE":"U","REF_FRAME":"TEME","SEMIMAJOR_AXIS":"6925.345","MEAN_ANOMALY":"290.6786","APOAPSIS":"548.723","OBJECT_TYPE":"PAYLOAD","ARG_OF_PERICENTER":"69.4437","EPOCH":"2022-01-09T18:45:32.050944","OBJECT_ID":"2021-017BH","RCS_SIZE":"LARGE","PERIOD":"95.592","CENTER_NAME":"EARTH","MEAN_MOTION_DOT":"0.00000728","DECAY_DATE":null},{"ELEMENT_SET_NO":"999","FILE":"3268323","TIME_SYSTEM":"UTC","OBJECT_NAME":"STARLINK-2211","MEAN_MOTION_DDOT":"0.0000000000000","RA_OF_ASC_NODE":"194.6389","REV_AT_EPOCH":"4866","NORAD_CAT_ID":"47778","BSTAR":"0.00006319100000","INCLINATION":"53.0443","SITE":"AFETR","MEAN_ELEMENT_THEORY":"SGP4","ECCENTRICITY":"0.00020890","GP_ID":"193559158","LAUNCH_DATE":"2021-03-04","MEAN_MOTION":"15.06396850","EPHEMERIS_TYPE":"0","TLE_LINE1":"1 47778U 21017BJ  22009.81480296  .00000660  00000-0  63191-4 0  9991","PERIAPSIS":"545.777","REF_FRAME":"TEME","SEMIMAJOR_AXIS":"6925.358","CLASSIFICATION_TYPE":"U","TLE_LINE2":"2 47778  53.0443 194.6389 0002089  84.1170 276.0057 15.06396850 48668","COUNTRY_CODE":"US","DECAY_DATE":null,"MEAN_MOTION_DOT":"0.00000660","CENTER_NAME":"EARTH","RCS_SIZE":"LARGE","PERIOD":"95.592","OBJECT_ID":"2021-017BJ","EPOCH":"2022-01-09T19:33:18.975744","ARG_OF_PERICENTER":"84.1170","APOAPSIS":"548.670","OBJECT_TYPE":"PAYLOAD","MEAN_ANOMALY":"276.0057"},{"PERIOD":"95.132","RCS_SIZE":"LARGE","CENTER_NAME":"EARTH","OBJECT_ID":"2021-017BK","MEAN_MOTION_DOT":"0.00001364","DECAY_DATE":null,"APOAPSIS":"526.575","OBJECT_TYPE":"PAYLOAD","MEAN_ANOMALY":"250.4672","EPOCH":"2022-01-09T19:34:06.442176","ARG_OF_PERICENTER":"109.6572","CLASSIFICATION_TYPE":"U","REF_FRAME":"TEME","SEMIMAJOR_AXIS":"6903.100","COUNTRY_CODE":"US","TLE_LINE2":"2 47779  53.0544 192.3594 0002332 109.6572 250.4672 15.13688563 48701","GP_ID":"193557924","LAUNCH_DATE":"2021-03-04","INCLINATION":"53.0544","SITE":"AFETR","MEAN_ELEMENT_THEORY":"SGP4","ECCENTRICITY":"0.00023320","MEAN_MOTION":"15.13688563","EPHEMERIS_TYPE":"0","PERIAPSIS":"523.355","TLE_LINE1":"1 47779U 21017BK  22009.81535234  .00001364  00000-0  91514-4 0  9997","OBJECT_NAME":"STARLINK-2212","MEAN_MOTION_DDOT":"0.0000000000000","RA_OF_ASC_NODE":"192.3594","ELEMENT_SET_NO":"999","FILE":"3268323","TIME_SYSTEM":"UTC","NORAD_CAT_ID":"47779","BSTAR":"0.00009151400000","REV_AT_EPOCH":"4870"},{"EPHEMERIS_TYPE":"0","MEAN_MOTION":"15.06399285","TLE_LINE1":"1 47780U 21017BL  22009.77425607  .00000854  00000-0  76230-4 0  9997","PERIAPSIS":"545.566","GP_ID":"193558174","LAUNCH_DATE":"2021-03-04","MEAN_ELEMENT_THEORY":"SGP4","INCLINATION":"53.0527","SITE":"AFETR","ECCENTRICITY":"0.00023820","BSTAR":"0.00007623000000","NORAD_CAT_ID":"47780","REV_AT_EPOCH":"4869","OBJECT_NAME":"STARLINK-2213","MEAN_MOTION_DDOT":"0.0000000000000","RA_OF_ASC_NODE":"194.8743","FILE":"3268323","ELEMENT_SET_NO":"999","TIME_SYSTEM":"UTC","OBJECT_TYPE":"PAYLOAD","APOAPSIS":"548.865","MEAN_ANOMALY":"288.8347","EPOCH":"2022-01-09T18:34:55.724448","ARG_OF_PERICENTER":"71.2900","PERIOD":"95.592","RCS_SIZE":"LARGE","CENTER_NAME":"EARTH","OBJECT_ID":"2021-017BL","MEAN_MOTION_DOT":"0.00000854","DECAY_DATE":null,"COUNTRY_CODE":"US","TLE_LINE2":"2 47780  53.0527 194.8743 0002382  71.2900 288.8347 15.06399285 48695","CLASSIFICATION_TYPE":"U","SEMIMAJOR_AXIS":"6925.351","REF_FRAME":"TEME"},{"LAUNCH_DATE":"2021-03-04","GP_ID":"193558926","ECCENTRICITY":"0.00020830","MEAN_ELEMENT_THEORY":"SGP4","SITE":"AFETR","INCLINATION":"53.0549","TLE_LINE1":"1 47781U 21017BM  22009.87377534 -.00001220  00000-0 -63002-4 0  9997","PERIAPSIS":"545.796","EPHEMERIS_TYPE":"0","MEAN_MOTION":"15.06391875","MEAN_MOTION_DDOT":"0.0000000000000","RA_OF_ASC_NODE":"194.3479","OBJECT_NAME":"STARLINK-2223","FILE":"3268323","TIME_SYSTEM":"UTC","ELEMENT_SET_NO":"999","BSTAR":"-0.00006300200000","NORAD_CAT_ID":"47781","REV_AT_EPOCH":"4866","OBJECT_ID":"2021-017BM","RCS_SIZE":"LARGE","CENTER_NAME":"EARTH","PERIOD":"95.593","DECAY_DATE":null,"MEAN_MOTION_DOT":"-0.00001220","MEAN_ANOMALY":"283.0963","OBJECT_TYPE":"PAYLOAD","APOAPSIS":"548.681","ARG_OF_PERICENTER":"77.0258","EPOCH":"2022-01-09T20:58:14.189376","CLASSIFICATION_TYPE":"U","SEMIMAJOR_AXIS":"6925.373","REF_FRAME":"TEME","COUNTRY_CODE":"US","TLE_LINE2":"2 47781  53.0549 194.3479 0002083  77.0258 283.0963 15.06391875 48664"}];
